{
    "links": {
        "self": "http://www.neowsapp.com/rest/v1/neo/3843377?api_key=iIulBulltgU6a56xZRHN4H3l9WmuAYTsLGpBGhQ2"
    },
    "id": "3843377",
    "neo_reference_id": "3843377",
    "name": "(2019 OD2)",
    "designation": "2019 OD2",
    "nasa_jpl_url": "http://ssd.jpl.nasa.gov/sbdb.cgi?sstr=3843377",
    "absolute_magnitude_h": 23.4,
    "estimated_diameter": {
        "kilometers": {
            "estimated_diameter_min": 0.0555334912,
            "estimated_diameter_max": 0.1241766613
        },
        "meters": {
            "estimated_diameter_min": 55.5334911581,
            "estimated_diameter_max": 124.1766612574
        },
        "miles": {
            "estimated_diameter_min": 0.0345069009,
            "estimated_diameter_max": 0.0771597762
        },
        "feet": {
            "estimated_diameter_min": 182.1964991311,
            "estimated_diameter_max": 407.4037573197
        }
    },
    "is_potentially_hazardous_asteroid": false,
    "close_approach_data": [
        {
            "close_approach_date": "2019-07-15",
            "close_approach_date_full": "2019-Jul-15 03:40",
            "epoch_date_close_approach": 1563162000000,
            "relative_velocity": {
                "kilometers_per_second": "13.8281696723",
                "kilometers_per_hour": "49781.4108203567",
                "miles_per_hour": "30932.2327400155"
            },
            "miss_distance": {
                "astronomical": "0.1191650992",
                "lunar": "46.3552235888",
                "kilometers": "17826845.018658704",
                "miles": "11077087.8432059552"
            },
            "orbiting_body": "Earth"
        },
        {
            "close_approach_date": "2019-12-16",
            "close_approach_date_full": "2019-Dec-16 14:49",
            "epoch_date_close_approach": 1576507740000,
            "relative_velocity": {
                "kilometers_per_second": "14.6926628445",
                "kilometers_per_hour": "52893.5862402814",
                "miles_per_hour": "32866.0175169126"
            },
            "miss_distance": {
                "astronomical": "0.3521387135",
                "lunar": "136.9819595515",
                "kilometers": "52679201.484140245",
                "miles": "32733337.937195581"
            },
            "orbiting_body": "Earth"
        }
    ],
    "orbital_data": {
        "orbit_id": "3",
        "orbit_determination_date": "2019-10-20 05:52:55",
        "first_observation_date": "2019-07-26",
        "last_observation_date": "2019-08-05",
        "data_arc_in_days": 10,
        "observations_used": 15,
        "orbit_uncertainty": "9",
        "minimum_orbit_intersection": ".117308",
        "jupiter_tisserand_invariant": "4.910",
        "epoch_osculation": "2458691.5",
        "eccentricity": ".1997668016325317",
        "semi_major_axis": "1.289880972964222",
        "inclination": "26.14324367792708",
        "ascending_node_longitude": "287.4604773843652",
        "orbital_period": "535.0851294395518",
        "perihelion_distance": "1.032205576508501",
        "perihelion_argument": "65.13646062962069",
        "aphelion_distance": "1.547556369419942",
        "perihelion_time": "2458742.802351209980",
        "mean_anomaly": "325.4842838653784",
        "mean_motion": ".6727901415931032",
        "equinox": "J2000",
        "orbit_class": {
            "orbit_class_type": "AMO",
            "orbit_class_description": "Near-Earth asteroid orbits similar to that of 1221 Amor",
            "orbit_class_range": "1.017 AU < q (perihelion) < 1.3 AU"
        }
    },
    "is_sentry_object": false
}